[
    {
        "CCSDS_OMM_VERS": "3.0",
        "COMMENT": "GENERATED VIA SPACE-TRACK.ORG API",
        "CREATION_DATE": "2025-04-12T03:00:55",
        "ORIGINATOR": "18 SPCS",
        "OBJECT_NAME": "GALILEO 27 (223)",
        "OBJECT_ID": "2021-116A",
        "CENTER_NAME": "EARTH",
        "REF_FRAME": "TEME",
        "TIME_SYSTEM": "UTC",
        "MEAN_ELEMENT_THEORY": "SGP4",
        "EPOCH": "2025-04-10T23:26:38.638176",
        "MEAN_MOTION": "1.70475807",
        "ECCENTRICITY": "0.00004990",
        "INCLINATION": "57.2717",
        "RA_OF_ASC_NODE": "353.3417",
        "ARG_OF_PERICENTER": "304.7592",
        "MEAN_ANOMALY": "238.0522",
        "EPHEMERIS_TYPE": "0",
        "CLASSIFICATION_TYPE": "U",
        "NORAD_CAT_ID": "49809",
        "ELEMENT_SET_NO": "999",
        "REV_AT_EPOCH": "2081",
        "BSTAR": "0.00000000000000",
        "MEAN_MOTION_DOT": "-0.00000100",
        "MEAN_MOTION_DDOT": "0.0000000000000",
        "SEMIMAJOR_AXIS": "29600.111",
        "PERIOD": "844.695",
        "APOAPSIS": "23223.453",
        "PERIAPSIS": "23220.499",
        "OBJECT_TYPE": "PAYLOAD",
        "RCS_SIZE": "LARGE",
        "COUNTRY_CODE": "ESA",
        "LAUNCH_DATE": "2021-12-05",
        "SITE": "FRGUI",
        "DECAY_DATE": null,
        "FILE": "4699215",
        "GP_ID": "285403895",
        "TLE_LINE0": "0 GALILEO 27 (223)",
        "TLE_LINE1": "1 49809U 21116A   25100.97683609 -.00000100  00000-0  00000-0 0  9999",
        "TLE_LINE2": "2 49809  57.2717 353.3417 0000499 304.7592 238.0522  1.70475807 20811"
    }
]